ONEWEB-0068             
1 45446U 20020Y   26160.06589106  .00000623  00000+0  17211-2 0  9991
2 45446  87.8905  22.6797 0001814  77.3153 282.8177 13.11417851301534
ONEWEB-0046             
1 45447U 20020Z   26160.05753744  .00000357  00000+0  97141-3 0  9997
2 45447  87.8893  22.6880 0002043  80.2185 279.9174 13.11419934301546
ONEWEB-0063             
1 45448U 20020AA  26160.08650230  .00000071  00000+0  16386-3 0  9992
2 45448  87.8902  22.6803 0002098  87.5048 272.6320 13.11416892301634
ONEWEB-0019             
1 45449U 20020AB  26160.12522231  .00000005  00000+0 -22483-4 0  9991
2 45449  87.8898  22.6599 0001678  86.6302 273.5018 13.11419541301488
ONEWEB-0094             
1 45450U 20020AC  26160.07775332  .00000010  00000+0 -77445-5 0  9994
2 45450  87.9147   7.4619 0001660  82.3246 277.8074 13.17650251305241
ONEWEB-0087             
1 45451U 20020AD  26160.09639415 -.00000312  00000+0 -91702-3 0  9994
2 45451  87.8912  22.6516 0001766  74.4712 285.6610 13.11415536301522
ONEWEB-0082             
1 45452U 20020AE  26160.16931438 -.00000155  00000+0 -47402-3 0  9996
2 45452  87.8902  22.6545 0002032  71.0395 289.0954 13.11415551301628
ONEWEB-0050             
1 45453U 20020AF  26160.21959585  .00002380  00000+0  24265-3 0  9998
2 45453  88.9297 234.2920 0004337  45.3431 314.8151 14.90348456339197
ONEWEB-0034             
1 45454U 20020AG  26160.12975498  .00109874  00000+0  30469+0 0  9995
2 45454  87.8919  22.6724 0003017 353.3680   6.7408 13.11780767301536
ONEWEB-0060             
1 45455U 20020AH  26160.08551412  .00000143  00000+0  36838-3 0  9996
2 45455  87.8893  22.6791 0001660  49.7531 310.3742 13.11415553301482
ONEWEB-0086             
1 45456U 20020AJ  26160.06418977 -.00000860  00000+0 -24624-2 0  9990
2 45456  87.8881  22.6784 0000805  56.6738 303.4467 13.11446370301543
ONEWEB-0088             
1 45457U 20020AK  26160.11857690 -.00000251  00000+0 -74308-3 0  9995
2 45457  87.8912  22.6399 0002219  82.2472 277.8908 13.11419419301483
ONEWEB-0102             
1 47258U 20100A   26160.05282328  .00000435  00000+0  11733-2 0  9992
2 47258  87.8938 352.2938 0001490  91.1330 268.9970 13.12445254263669
ONEWEB-0109             
1 47259U 20100B   26160.29000939  .00000463  00000+0  12523-2 0  9994
2 47259  87.8950 352.2294 0001766  94.4415 265.6915 13.12443708263525
ONEWEB-0110             
1 47260U 20100C   26160.24087044 -.00000193  00000+0 -57050-3 0  9990
2 47260  87.8948 352.2231 0001556  84.1979 275.9327 13.12443100263687
ONEWEB-0111             
1 47261U 20100D   26160.04264597 -.00000171  00000+0 -51063-3 0  9993
2 47261  87.8949 352.2816 0001786  85.3468 274.7864 13.12443670263493
ONEWEB-0114             
1 47262U 20100E   26160.22562773  .00000317  00000+0  84504-3 0  9997
2 47262  87.8952 352.2424 0001919  95.9413 264.1934 13.12443007263471
ONEWEB-0117             
1 47263U 20100F   26160.06468814  .00000466  00000+0  12593-2 0  9994
2 47263  87.8946 352.2656 0001770  88.8653 271.2678 13.12442550263469
ONEWEB-0118             
1 47264U 20100G   26160.25103248 -.00000429  00000+0 -12266-2 0  9991
2 47264  87.8949 352.2311 0002092  93.1463 266.9905 13.12442846263683
ONEWEB-0119             
1 47265U 20100H   26160.04774614  .00000200  00000+0  52006-3 0  9992
2 47265  87.8938 352.2892 0001807  89.5777 270.5558 13.12444103263634
ONEWEB-0120             
1 47266U 20100J   26160.22407945  .00000338  00000+0  90480-3 0  9993
2 47266  87.8939 352.2551 0001761  94.9063 265.2267 13.12442934263688
ONEWEB-0121             
1 47267U 20100K   26160.28831692  .00000492  00000+0  13314-2 0  9991
2 47267  87.8949 352.2278 0001819  79.1813 280.9520 13.12443271263601
ONEWEB-0122             
1 47268U 20100L   26160.28239331  .00000362  00000+0  97028-3 0  9995
2 47268  87.8949 352.2333 0001686  92.7597 267.3724 13.12443564263516
ONEWEB-0123             
1 47269U 20100M   26160.27815196  .00000255  00000+0  67239-3 0  9996
2 47269  87.8940 352.2425 0001891  89.9921 270.1425 13.12444532263658
ONEWEB-0124             
1 47270U 20100N   26160.26798227 -.00000079  00000+0 -25595-3 0  9997
2 47270  87.8937 352.2477 0001825  85.9980 274.1357 13.12444671263530
ONEWEB-0125             
1 47271U 20100P   26160.24595058 -.00000317  00000+0 -91626-3 0  9996
2 47271  87.8949 352.2340 0002028  82.3862 277.7497 13.12443707263598
ONEWEB-0126             
1 47272U 20100Q   26160.26642932 -.00000148  00000+0 -44560-3 0  9990
2 47272  87.8943 352.2466 0001826  93.4568 266.6769 13.12443542263667
ONEWEB-0127             
1 47273U 20100R   26160.23240113  .00000096  00000+0  23229-3 0  9992
2 47273  87.8938 352.2521 0001752  93.0163 267.1166 13.12442839263686
ONEWEB-0128             
1 47274U 20100S   26160.25441813 -.00000385  00000+0 -11052-2 0  9998
2 47274  87.8937 352.2624 0001553  83.5124 276.6181 13.12442638263702
ONEWEB-0129             
1 47275U 20100T   26160.23409684  .00000001  00000+0 -32800-4 0  9997
2 47275  87.8948 352.2387 0002035 122.4908 237.6418 13.12441872263631
