OBJECT_NAME,OBJECT_ID,EPOCH,MEAN_MOTION,ECCENTRICITY,INCLINATION,RA_OF_ASC_NODE,ARG_OF_PERICENTER,MEAN_ANOMALY,EPHEMERIS_TYPE,CLASSIFICATION_TYPE,NORAD_CAT_ID,ELEMENT_SET_NO,REV_AT_EPOCH,BSTAR,MEAN_MOTION_DOT,MEAN_MOTION_DDOT
ONEWEB-0068,2020-020Y,2026-06-09T01:34:52.987584,13.11417851,.00018146,87.8905,22.6797,77.3153,282.8177,0,U,45446,999,30153,.1721074E-2,.623E-5,0
ONEWEB-0046,2020-020Z,2026-06-09T01:22:51.234816,13.11419934,.00020436,87.8893,22.6880,80.2185,279.9174,0,U,45447,999,30154,.97141253E-3,.357E-5,0
ONEWEB-0063,2020-020AA,2026-06-09T02:04:33.798720,13.11416892,.0002098,87.8902,22.6803,87.5048,272.6320,0,U,45448,999,30163,.16385882E-3,.71E-6,0
ONEWEB-0019,2020-020AB,2026-06-09T03:00:19.207584,13.11419541,.00016786,87.8898,22.6599,86.6302,273.5018,0,U,45449,999,30148,-.22483327E-4,.5E-7,0
ONEWEB-0094,2020-020AC,2026-06-09T01:51:57.886848,13.17650251,.00016605,87.9147,7.4619,82.3246,277.8074,0,U,45450,999,30524,-.7744546E-5,.1E-6,0
ONEWEB-0087,2020-020AD,2026-06-09T02:18:48.454560,13.11415536,.0001766,87.8912,22.6516,74.4712,285.6610,0,U,45451,999,30152,-.91702456E-3,-.312E-5,0
ONEWEB-0082,2020-020AE,2026-06-09T04:03:48.762432,13.11415551,.00020327,87.8902,22.6545,71.0395,289.0954,0,U,45452,999,30162,-.47401792E-3,-.155E-5,0
ONEWEB-0050,2020-020AF,2026-06-09T05:16:13.081440,14.90348456,.00043371,88.9297,234.2920,45.3431,314.8151,0,U,45453,999,33919,.2426467E-3,.238E-4,0
ONEWEB-0034,2020-020AG,2026-06-09T03:06:50.830272,13.11780767,.00030178,87.8919,22.6724,353.3680,6.7408,0,U,45454,999,30153,.30468801E+0,.109874E-2,0
ONEWEB-0060,2020-020AH,2026-06-09T02:03:08.419968,13.11415553,.00016604,87.8893,22.6791,49.7531,310.3742,0,U,45455,999,30148,.36837774E-3,.143E-5,0
ONEWEB-0086,2020-020AJ,2026-06-09T01:32:25.996128,13.11446370,.00008058,87.8881,22.6784,56.6738,303.4467,0,U,45456,999,30154,-.24624196E-2,-.86E-5,0
ONEWEB-0088,2020-020AK,2026-06-09T02:50:45.044160,13.11419419,.00022191,87.8912,22.6399,82.2472,277.8908,0,U,45457,999,30148,-.74308439E-3,-.251E-5,0
ONEWEB-0102,2020-100A,2026-06-09T01:16:03.931392,13.12445254,.00014903,87.8938,352.2938,91.1330,268.9970,0,U,47258,999,26366,.11733144E-2,.435E-5,0
ONEWEB-0109,2020-100B,2026-06-09T06:57:36.811296,13.12443708,.00017665,87.8950,352.2294,94.4415,265.6915,0,U,47259,999,26352,.12522845E-2,.463E-5,0
ONEWEB-0110,2020-100C,2026-06-09T05:46:51.206016,13.12443100,.00015561,87.8948,352.2231,84.1979,275.9327,0,U,47260,999,26368,-.57050185E-3,-.193E-5,0
ONEWEB-0111,2020-100D,2026-06-09T01:01:24.611808,13.12443670,.00017864,87.8949,352.2816,85.3468,274.7864,0,U,47261,999,26349,-.51063231E-3,-.171E-5,0
ONEWEB-0114,2020-100E,2026-06-09T05:24:54.235872,13.12443007,.0001919,87.8952,352.2424,95.9413,264.1934,0,U,47262,999,26347,.84503558E-3,.317E-5,0
ONEWEB-0117,2020-100F,2026-06-09T01:33:09.055296,13.12442550,.00017705,87.8946,352.2656,88.8653,271.2678,0,U,47263,999,26346,.12592699E-2,.466E-5,0
ONEWEB-0118,2020-100G,2026-06-09T06:01:29.206272,13.12442846,.00020922,87.8949,352.2311,93.1463,266.9905,0,U,47264,999,26368,-.12265983E-2,-.429E-5,0
ONEWEB-0119,2020-100H,2026-06-09T01:08:45.266496,13.12444103,.00018073,87.8938,352.2892,89.5777,270.5558,0,U,47265,999,26363,.52005863E-3,.2E-5,0
ONEWEB-0120,2020-100J,2026-06-09T05:22:40.464480,13.12442934,.00017616,87.8939,352.2551,94.9063,265.2267,0,U,47266,999,26368,.90480478E-3,.338E-5,0
ONEWEB-0121,2020-100K,2026-06-09T06:55:10.581888,13.12443271,.00018197,87.8949,352.2278,79.1813,280.9520,0,U,47267,999,26360,.13314225E-2,.492E-5,0
ONEWEB-0122,2020-100L,2026-06-09T06:46:38.781984,13.12443564,.0001686,87.8949,352.2333,92.7597,267.3724,0,U,47268,999,26351,.97028469E-3,.362E-5,0
ONEWEB-0123,2020-100M,2026-06-09T06:40:32.329344,13.12444532,.00018919,87.8940,352.2425,89.9921,270.1425,0,U,47269,999,26365,.67238695E-3,.255E-5,0
ONEWEB-0124,2020-100N,2026-06-09T06:25:53.668128,13.12444671,.00018258,87.8937,352.2477,85.9980,274.1357,0,U,47270,999,26353,-.25594994E-3,-.79E-6,0
ONEWEB-0125,2020-100P,2026-06-09T05:54:10.130112,13.12443707,.00020281,87.8949,352.2340,82.3862,277.7497,0,U,47271,999,26359,-.91626083E-3,-.317E-5,0
ONEWEB-0126,2020-100Q,2026-06-09T06:23:39.493248,13.12443542,.00018266,87.8943,352.2466,93.4568,266.6769,0,U,47272,999,26366,-.44560323E-3,-.148E-5,0
ONEWEB-0127,2020-100R,2026-06-09T05:34:39.457632,13.12442839,.00017527,87.8938,352.2521,93.0163,267.1166,0,U,47273,999,26368,.23229135E-3,.96E-6,0
ONEWEB-0128,2020-100S,2026-06-09T06:06:21.726432,13.12442638,.00015536,87.8937,352.2624,83.5124,276.6181,0,U,47274,999,26370,-.11051751E-2,-.385E-5,0
ONEWEB-0129,2020-100T,2026-06-09T05:37:05.966976,13.12441872,.00020357,87.8948,352.2387,122.4908,237.6418,0,U,47275,999,26363,-.32799736E-4,.1E-7,0
